NORAD_CAT_ID,OBJECT_NAME,OBJECT_TYPE,EPOCH,MEAN_MOTION,ECCENTRICITY,INCLINATION,RA_OF_ASC_NODE,ARG_OF_PERICENTER,MEAN_ANOMALY,BSTAR,MEAN_MOTION_DOT,MEAN_MOTION_DDOT,TLE_LINE0,TLE_LINE1,TLE_LINE2,SEMIMAJOR_AXIS,PERIOD,APOGEE,PERIGEE,DECAYED
53825.0,STARLINK-4751,PAYLOAD,2023-10-04 13:33:04,15.08852083,0.0001498,53.2179,326.7205,85.6652,274.4511,0.00021876,3.196e-05,0.0,0 STARLINK-4751,1 53825U 22114H   23277.56463501  .00003196  00000-0  21876-3 0  9990,2 53825  53.2179 326.7205 0001498  85.6652 274.4511 15.08852083 58367,6917.843,95.437,540.745,538.672,0.0
53825.0,STARLINK-4751,PAYLOAD,2023-10-04 19:54:37,15.08834449,0.0001942,53.2179,325.5274,83.7036,276.4178,7.1169e-05,8.45e-06,0.0,0 STARLINK-4751,1 53825U 22114H   23277.82960588  .00000845  00000-0  71169-4 0  9995,2 53825  53.2179 325.5274 0001942  83.7036 276.4178 15.08834449 58940,6917.897,95.438,541.106,538.419,0.0
53825.0,STARLINK-4751,PAYLOAD,2023-10-05 10:13:05,15.08852042,0.00015,53.2174,322.8553,91.896,268.2204,0.00043796,6.691e-05,0.0,0 STARLINK-4751,1 53825U 22114H   23278.42575981  .00006691  00000-0  43796-3 0  9990,2 53825  53.2174 322.8553 0001500  91.8960 268.2204 15.08852042 58499,6917.844,95.437,540.746,538.671,0.0
53825.0,STARLINK-4751,PAYLOAD,2023-10-05 13:23:51,15.08857977,0.0001567,53.2177,322.2597,90.2319,269.8853,0.000809,0.00012617,0.0,0 STARLINK-4751,1 53825U 22114H   23278.55823929  .00012617  00000-0  80900-3 0  9995,2 53825  53.2177 322.2597 0001567  90.2319 269.8853 15.08857977 59050,6917.825,95.436,540.774,538.606,0.0
53825.0,STARLINK-4751,PAYLOAD,2023-10-05 19:45:24,15.08829809,0.0001797,53.2179,321.068,98.7813,261.3383,-0.0002786,-4.718e-05,0.0,0 STARLINK-4751,1 53825U 22114H   23278.82320501 -.00004718  00000-0 -27860-3 0  9994,2 53825  53.2179 321.0680 0001797  98.7813 261.3383 15.08829809 58551,6917.912,95.438,541.02,538.533,0.0
53825.0,STARLINK-4751,PAYLOAD,2023-10-06 10:03:53,15.08849334,0.000149,53.2167,318.3941,105.296,254.8197,0.001743,0.00027568,0.0,0 STARLINK-4751,1 53825U 22114H   23279.41936403  .00027568  00000-0  17430-2 0  9991,2 53825  53.2167 318.3941 0001490 105.2960 254.8197 15.08849334 58649,6917.852,95.437,540.748,538.686,0.0
53825.0,STARLINK-4751,PAYLOAD,2023-10-06 13:14:39,15.08856675,0.0001467,53.2167,317.7989,106.416,253.6993,0.0018738,0.00029673,0.0,0 STARLINK-4751,1 53825U 22114H   23279.55184272  .00029673  00000-0  18738-2 0  9996,2 53825  53.2167 317.7989 0001467 106.4160 253.6993 15.08856675 59203,6917.829,95.436,540.709,538.68,0.0
53825.0,STARLINK-4751,PAYLOAD,2023-10-06 19:36:11,15.08850362,0.0001447,53.2169,316.6076,88.5972,271.5186,0.001171,0.00018403,0.0,0 STARLINK-4751,1 53825U 22114H   23279.81680455  .00018403  00000-0  11710-2 0  9991,2 53825  53.2169 316.6076 0001447  88.5972 271.5186 15.08850362 58703,6917.849,95.437,540.715,538.713,0.0
53825.0,STARLINK-4751,PAYLOAD,2023-10-07 09:54:40,15.08841366,0.0001781,53.2173,313.9343,87.9788,272.1409,0.00082035,0.00012792,0.0,0 STARLINK-4751,1 53825U 22114H   23280.41296825  .00012792  00000-0  82035-3 0  9997,2 53825  53.2173 313.9343 0001781  87.9788 272.1409 15.08841366 58792,6917.876,95.437,540.973,538.509,0.0
53825.0,STARLINK-4751,PAYLOAD,2023-10-07 19:26:59,15.08831512,0.0001192,53.2169,312.1492,114.5538,245.5579,-7.0712e-05,-1.413e-05,0.0,0 STARLINK-4751,1 53825U 22114H   23280.81040673 -.00001413  00000-0 -70712-4 0  9999,2 53825  53.2169 312.1492 0001192 114.5538 245.5579 15.08831512 58850,6917.906,95.438,540.596,538.947,0.0
53825.0,STARLINK-4751,PAYLOAD,2023-10-08 09:45:27,15.08849929,0.0001557,53.216,309.4725,103.22,256.8966,0.00057563,8.887e-05,0.0,0 STARLINK-4751,1 53825U 22114H   23281.40656705  .00008887  00000-0  57563-3 0  9992,2 53825  53.2160 309.4725 0001557 103.2200 256.8966 15.08849929 58941,6917.85,95.437,540.792,538.638,0.0
53825.0,STARLINK-4751,PAYLOAD,2023-10-08 19:17:46,15.08836841,0.0001667,53.2161,307.6869,101.8308,258.2871,0.00014862,2.078e-05,0.0,0 STARLINK-4751,1 53825U 22114H   23281.80401005  .00002078  00000-0  14862-3 0  9998,2 53825  53.2161 307.6869 0001667 101.8308 258.2871 15.08836841 59543,6917.89,95.438,540.908,538.602,0.0
53825.0,STARLINK-4751,PAYLOAD,2023-10-09 01:39:18,15.08839904,0.0001288,53.2167,306.5001,92.8873,267.2267,0.00012472,1.698e-05,0.0,0 STARLINK-4751,1 53825U 22114H   23282.06896883  .00001698  00000-0  12472-3 0  9991,2 53825  53.2167 306.5001 0001288  92.8873 267.2267 15.08839904 59047,6917.881,95.438,540.637,538.855,0.0
53825.0,STARLINK-4751,PAYLOAD,2023-10-09 08:00:51,15.0885388,0.0001523,53.2155,305.3091,98.4729,261.6436,0.00057313,8.849e-05,0.0,0 STARLINK-4751,1 53825U 22114H   23282.33392568  .00008849  00000-0  57313-3 0  9990,2 53825  53.2155 305.3091 0001523  98.4729 261.6436 15.08853880 59083,6917.838,95.437,540.757,538.649,0.0
53825.0,STARLINK-4751,PAYLOAD,2023-10-09 12:47:00,15.08863304,0.000146,53.2163,304.4162,97.6522,262.4636,0.00094029,0.00014718,0.0,0 STARLINK-4751,1 53825U 22114H   23282.53264174  .00014718  00000-0  94029-3 0  9990,2 53825  53.2163 304.4162 0001460  97.6522 262.4636 15.08863304 59659,6917.809,95.436,540.684,538.664,0.0
53825.0,STARLINK-4751,PAYLOAD,2023-10-09 22:19:19,15.08845161,0.0001819,53.2159,302.6322,100.8608,259.2589,0.00040398,6.148e-05,0.0,0 STARLINK-4751,1 53825U 22114H   23282.93008720  .00006148  00000-0  40398-3 0  9995,2 53825  53.2159 302.6322 0001819 100.8608 259.2589 15.08845161 59171,6917.865,95.437,540.988,538.471,0.0
53825.0,STARLINK-4751,PAYLOAD,2023-10-10 12:37:47,15.08852028,0.0001767,53.2169,299.9553,95.6983,264.421,0.00072737,0.00011311,0.0,0 STARLINK-4751,1 53825U 22114H   23283.52624679  .00011311  00000-0  72737-3 0  9998,2 53825  53.2169 299.9553 0001767  95.6983 264.4210 15.08852028 59804,6917.844,95.437,540.931,538.486,0.0
53825.0,STARLINK-4751,PAYLOAD,2023-10-11 01:20:53,15.0883765,0.0001939,53.2162,297.5772,99.5527,260.5684,0.00075694,0.00011778,0.0,0 STARLINK-4751,1 53825U 22114H   23284.05617385  .00011778  00000-0  75694-3 0  9995,2 53825  53.2162 297.5772 0001939  99.5527 260.5684 15.08837650 59347,6917.888,95.438,541.094,538.411,0.0
53825.0,STARLINK-4751,PAYLOAD,2023-10-11 12:28:35,15.08850677,0.0001809,53.217,295.4957,94.5439,265.576,0.00090404,0.00014133,0.0,0 STARLINK-4751,1 53825U 22114H   23284.51985285  .00014133  00000-0  90404-3 0  9997,2 53825  53.2170 295.4957 0001809  94.5439 265.5760 15.08850677 59952,6917.848,95.437,540.964,538.461,0.0
53825.0,STARLINK-4751,PAYLOAD,2023-10-12 04:22:26,15.08843571,0.0001801,53.2172,292.5227,99.2911,260.8285,0.00090757,0.00014187,0.0,0 STARLINK-4751,1 53825U 22114H   23285.18225690  .00014187  00000-0  90757-3 0  9998,2 53825  53.2172 292.5227 0001801  99.2911 260.8285 15.08843571 59518,6917.869,95.437,540.98,538.489,0.0
53825.0,STARLINK-4751,PAYLOAD,2023-10-12 12:19:22,15.08860281,0.0001615,53.2167,291.037,94.2023,265.9154,0.0015869,0.00025072,0.0,0 STARLINK-4751,1 53825U 22114H   23285.51345449  .00025072  00000-0  15869-2 0  9995,2 53825  53.2167 291.0370 0001615  94.2023 265.9154 15.08860281 60102,6917.818,95.436,540.801,538.566,0.0
53825.0,STARLINK-4751,PAYLOAD,2023-10-12 17:05:32,15.08843843,0.0002,53.2171,290.1442,87.2882,272.8339,0.00091214,0.0001426,0.0,0 STARLINK-4751,1 53825U 22114H   23285.71217877  .00014260  00000-0  91214-3 0  9996,2 53825  53.2171 290.1442 0002000  87.2882 272.8339 15.08843843 59599,6917.869,95.437,541.117,538.35,0.0
53825.0,STARLINK-4751,PAYLOAD,2023-10-13 07:24:00,15.0885086,0.0001656,53.2166,287.4692,96.9986,263.1195,0.00066663,0.0001034,0.0,0 STARLINK-4751,1 53825U 22114H   23286.30833573  .00010340  00000-0  66663-3 0  9994,2 53825  53.2166 287.4692 0001656  96.9986 263.1195 15.08850860 59687,6917.847,95.437,540.858,538.567,0.0
53825.0,STARLINK-4751,PAYLOAD,2023-10-13 16:56:19,15.08850646,0.0001629,53.2164,285.6834,89.2228,270.895,0.00070869,0.00011012,0.0,0 STARLINK-4751,1 53825U 22114H   23286.70577645  .00011012  00000-0  70869-3 0  9993,2 53825  53.2164 285.6834 0001629  89.2228 270.8950 15.08850646 59740,6917.848,95.437,540.84,538.586,0.0
53825.0,STARLINK-4751,PAYLOAD,2023-10-14 08:50:09,15.08861673,0.0001686,53.216,282.7116,100.5135,259.6047,0.00080958,0.00012628,0.0,0 STARLINK-4751,1 53825U 22114H   23287.36817090  .00012628  00000-0  80958-3 0  9991,2 53825  53.2160 282.7116 0001686 100.5135 259.6047 15.08861673 60380,6917.814,95.436,540.845,538.513,0.0
53825.0,STARLINK-4751,PAYLOAD,2023-10-15 03:54:48,15.08820291,0.0001354,53.2156,279.143,96.3255,263.7891,-0.00044799,-7.407e-05,0.0,0 STARLINK-4751,1 53825U 22114H   23288.16305995 -.00007407  00000-0 -44799-3 0  9990,2 53825  53.2156 279.1430 0001354  96.3255 263.7891 15.08820291 59967,6917.941,95.439,540.742,538.869,0.0
53825.0,STARLINK-4751,PAYLOAD,2023-10-15 08:40:58,15.0882653,0.0001548,53.2158,278.2498,88.9246,271.1923,-0.00014591,-2.609e-05,0.0,0 STARLINK-4751,1 53825U 22114H   23288.36178387 -.00002609  00000-0 -14591-3 0  9991,2 53825  53.2158 278.2498 0001548  88.9246 271.1923 15.08826530 60531,6917.922,95.438,540.857,538.716,0.0
53825.0,STARLINK-4751,PAYLOAD,2023-10-15 16:37:53,15.08835048,0.0001561,53.2167,276.7629,89.5058,270.6113,8.694e-05,1.096e-05,0.0,0 STARLINK-4751,1 53825U 22114H   23288.69298439  .00001096  00000-0  86940-4 0  9993,2 53825  53.2167 276.7629 0001561  89.5058 270.6113 15.08835048 60048,6917.896,95.438,540.84,538.681,0.0
53825.0,STARLINK-4751,PAYLOAD,2023-10-16 08:31:45,15.08855634,0.0001459,53.2158,273.7884,90.7725,269.3434,0.0010068,0.00015778,0.0,0 STARLINK-4751,1 53825U 22114H   23289.35538235  .00015778  00000-0  10068-2 0  9996,2 53825  53.2158 273.7884 0001459  90.7725 269.3434 15.08855634 60144,6917.833,95.437,540.707,538.688,0.0
53825.0,STARLINK-4751,PAYLOAD,2023-10-17 08:22:31,15.0886479,0.0001479,53.2163,269.3275,98.907,261.209,0.00085458,0.00013348,0.0,0 STARLINK-4751,1 53825U 22114H   23290.34897593  .00013348  00000-0  85458-3 0  9999,2 53825  53.2163 269.3275 0001479  98.9070 261.2090 15.08864790 60298,6917.805,95.436,540.693,538.646,0.0
